{
    "links": {
        "self": "http://www.neowsapp.com/rest/v1/neo/3605791?api_key=iIulBulltgU6a56xZRHN4H3l9WmuAYTsLGpBGhQ2"
    },
    "id": "3605791",
    "neo_reference_id": "3605791",
    "name": "(2012 LC13)",
    "designation": "2012 LC13",
    "nasa_jpl_url": "http://ssd.jpl.nasa.gov/sbdb.cgi?sstr=3605791",
    "absolute_magnitude_h": 21.8,
    "estimated_diameter": {
        "kilometers": {
            "estimated_diameter_min": 0.1160259082,
            "estimated_diameter_max": 0.2594418179
        },
        "meters": {
            "estimated_diameter_min": 116.0259082094,
            "estimated_diameter_max": 259.4418179074
        },
        "miles": {
            "estimated_diameter_min": 0.0720951346,
            "estimated_diameter_max": 0.1612096218
        },
        "feet": {
            "estimated_diameter_min": 380.6624406898,
            "estimated_diameter_max": 851.1870938635
        }
    },
    "is_potentially_hazardous_asteroid": false,
    "close_approach_data": [
        {
            "close_approach_date": "2012-07-07",
            "close_approach_date_full": "2012-Jul-07 22:01",
            "epoch_date_close_approach": 1341698460000,
            "relative_velocity": {
                "kilometers_per_second": "3.7541129488",
                "kilometers_per_hour": "13514.8066155248",
                "miles_per_hour": "8397.5752550743"
            },
            "miss_distance": {
                "astronomical": "0.290241478",
                "lunar": "112.903934942",
                "kilometers": "43419506.89445186",
                "miles": "26979630.522121268"
            },
            "orbiting_body": "Earth"
        }
    ],
    "orbital_data": {
        "orbit_id": "9",
        "orbit_determination_date": "2020-07-09 06:10:09",
        "first_observation_date": "2012-05-21",
        "last_observation_date": "2012-06-23",
        "data_arc_in_days": 33,
        "observations_used": 39,
        "orbit_uncertainty": "7",
        "minimum_orbit_intersection": ".240347",
        "jupiter_tisserand_invariant": "3.548",
        "epoch_osculation": "2459000.5",
        "eccentricity": ".4263027740701222",
        "semi_major_axis": "2.185119838523124",
        "inclination": "5.434345942789444",
        "ascending_node_longitude": "94.29927466074864",
        "orbital_period": "1179.807946034042",
        "perihelion_distance": "1.253597189685059",
        "perihelion_argument": "201.3951332696986",
        "aphelion_distance": "3.116642487361189",
        "perihelion_time": "2458497.753901144020",
        "mean_anomaly": "153.4051336037795",
        "mean_motion": ".3051344087062223",
        "equinox": "J2000",
        "orbit_class": {
            "orbit_class_type": "AMO",
            "orbit_class_description": "Near-Earth asteroid orbits similar to that of 1221 Amor",
            "orbit_class_range": "1.017 AU < q (perihelion) < 1.3 AU"
        }
    },
    "is_sentry_object": false
}